TRANSIT 16 [?]          
1 02807U 67048A   22352.55310978  .00000126  00000+0  18043-3 0  9991
2 02807  89.6596  30.1475 0021140  33.5661 132.5999 13.50346135735615
TRANSIT 17 [?]          
1 02965U 67092A   22352.41675125  .00000139  00000+0  18861-3 0  9990
2 02965  89.2341 109.1991 0048645 159.9440 267.6181 13.53057508723932
TRANSIT 18 [?]          
1 03133U 68012A   22352.52170194  .00000139  00000+0  19592-3 0  9991
2 03133  90.0114 271.6858 0076787  88.0394  85.2115 13.51184147421948
NNSS 19 [?]             
1 04507U 70067A   22352.40658988  .00000075  00000+0  93247-4 0  9998
2 04507  89.9341 237.9907 0171210 211.0758 148.0180 13.50864872574995
NNSS O-20 [?]           
1 06909U 73081A   22352.51405478  .00000211  00000+0  20509-3 0  9993
2 06909  89.8231 273.9486 0158119 105.4128 256.4563 13.70728166654223
TRANSAT [?]             
1 10457U 77106A   22352.36061184  .00000085  00000+0  11995-3 0  9991
2 10457  89.6750 116.5513 0026863  97.1153 275.5782 13.48700584220456
NOVA I [?]              
1 12458U 81044A   22352.37584793  .00000063  00000+0  12914-3 0  9995
2 12458  89.8845 105.6307 0013486 225.4877 195.3156 13.23084501  7670
NOVA 3 [?]              
1 15362U 84110A   22352.50411037  .00000041  00000+0  76165-4 0  9999
2 15362  90.1057  68.7369 0033708  95.3554 276.4839 13.22849675842844
OSCAR 30 [?]            
1 15935U 85066A   22352.51053652  .00000094  00000+0  15803-3 0  9991
2 15935  90.1825  81.1189 0166930 279.2975  90.0320 13.35780277818974
OSCAR 24 [?]            
1 15936U 85066B   22352.53025595  .00000090  00000+0  15201-3 0  9997
2 15936  90.1795  73.0349 0167472 285.1131  84.5431 13.35639687820894
POLAR BEAR [?]          
1 17070U 86088A   22352.42840662  .00000098  00000+0  90056-4 0  9991
2 17070  89.5745 229.2611 0039422 166.1362   7.4404 13.74897809809959
OSCAR 27 [?]            
1 18361U 87080A   22352.40070817  .00000087  00000+0  12876-3 0  9994
2 18361  90.3375  40.3811 0106242 106.7484 254.5353 13.44590919729033
OSCAR 29 [?]            
1 18362U 87080B   22352.41913419  .00000073  00000+0  10604-3 0  9992
2 18362  90.3389  40.7279 0107680 127.0032 245.5256 13.44177480728612
OSCAR 23 [?]            
1 19070U 88033A   22352.46864632  .00000114  00000+0  21595-3 0  9992
2 19070  90.3233 342.6390 0189082 332.6174 145.2642 13.27543279677861
OSCAR 32 [?]            
1 19071U 88033B   22352.51385728  .00000093  00000+0  17451-3 0  9995
2 19071  90.3236 342.7301 0187068 320.2321 165.9904 13.27722420677976
NOVA 11 [?]             
1 19223U 88052A   22352.50121686  .00000081  00000+0  17099-3 0  9990
2 19223  89.9792  80.4138 0032048 136.4087 235.7048 13.22762295665345
OSCAR 25 [?]            
1 19419U 88074A   22352.56263580  .00000117  00000+0  18338-3 0  9994
2 19419  90.0059  18.0177 0098128 115.5745  42.4712 13.42319956680130
OSCAR 31 [?]            
1 19420U 88074B   22352.57693288  .00000098  00000+0  15197-3 0  9997
2 19420  90.0071  18.2135 0096378 109.7745  55.6120 13.42328573680248
